OBJECT_NAME,OBJECT_ID,EPOCH,MEAN_MOTION,ECCENTRICITY,INCLINATION,RA_OF_ASC_NODE,ARG_OF_PERICENTER,MEAN_ANOMALY,EPHEMERIS_TYPE,CLASSIFICATION_TYPE,NORAD_CAT_ID,ELEMENT_SET_NO,REV_AT_EPOCH,BSTAR,MEAN_MOTION_DOT,MEAN_MOTION_DDOT
STARLINK-1880,2020-088AV,2021-10-02T00:03:20.064384,15.06395864,.0001276,53.0552,12.6804,95.6037,264.5098,0,U,47165,999,4771,.68752E-4,.743E-5,0
STARLINK-1881,2020-088AW,2021-10-02T04:37:50.334816,15.29184327,.0001051,53.0499,339.3371,128.5810,231.5283,0,U,47166,999,4820,.65591E-3,.1852E-3,0
STARLINK-1884,2020-088AX,2021-10-01T23:42:05.455296,15.06391841,.0005338,53.0565,12.7566,245.9081,114.1350,0,U,47167,999,4771,.52438E-4,.498E-5,0
STARLINK-1885,2020-088AY,2021-10-01T23:36:48.635136,15.06387820,.0001279,53.0558,12.7649,105.2794,254.8336,0,U,47168,999,4771,-.2844E-4,-.705E-5,0
STARLINK-1886,2020-088AZ,2021-10-02T04:31:07.308192,15.80406221,.0007057,53.0686,328.4000,272.2835,87.7378,0,U,47169,999,4836,.45398E-2,.983619E-2,0
STARLINK-1887,2020-088BA,2021-10-01T23:20:52.604448,15.06393629,.000159,53.0559,12.8197,86.4366,273.6805,0,U,47170,999,4771,.74335E-4,.826E-5,0
STARLINK-1888,2020-088BB,2021-10-01T17:26:34.554912,15.06401824,.0001142,53.0571,3.9160,107.4919,252.6195,0,U,47171,999,4781,.115E-3,.1432E-4,0
STARLINK-1889,2020-088BC,2021-10-02T11:27:20.289888,15.43477946,.0002173,53.0571,8.6390,51.7966,308.3234,0,U,47172,999,4810,.5038E-2,.23593E-2,0
STARLINK-1890,2020-088BD,2021-10-01T23:40:44.912352,15.06394109,.0001249,53.0564,12.7499,99.9198,260.1932,0,U,47173,999,4771,-.33154E-4,-.775E-5,0
STARLINK-1891,2020-088BE,2021-10-01T23:52:42.843648,15.06402859,.000134,53.0565,12.7165,95.8659,264.2483,0,U,47174,999,4771,.7705E-4,.866E-5,0
STARLINK-1895,2020-088BF,2021-10-02T04:36:40.114080,15.06407220,.0001397,53.0565,351.8127,87.2075,272.9074,0,U,47175,999,4802,.17112E-3,.2269E-4,0
STARLINK-1907,2020-088BH,2021-10-01T23:27:30.296736,15.06404560,.0001235,53.0578,2.8021,108.3358,251.7766,0,U,47177,999,4785,.1747E-4,-.21E-6,0
STARLINK-1912,2020-088BJ,2021-10-02T11:43:56.909568,15.06399261,.0001395,53.0570,10.4828,92.0618,268.0531,0,U,47178,999,4778,.32488E-4,.202E-5,0
STARLINK-1913,2020-088BK,2021-10-02T11:26:42.483840,15.06378103,.0000875,53.0553,20.5495,107.9090,252.1994,0,U,47179,999,4789,.39907E-3,.5664E-4,0
STARLINK-1914,2020-088BL,2021-10-01T23:05:41.109504,15.69536979,.0002039,53.0522,6.7740,25.4648,334.6468,0,U,47180,999,4779,.18459E-2,.227672E-2,0
STARLINK-1927,2020-088BM,2021-10-02T04:26:04.923744,15.06393317,.0001228,53.0566,351.8536,105.6600,254.4524,0,U,47181,999,4802,.26149E-4,.108E-5,0
LUCAS (JDRS-1),2020-089A,2021-10-02T00:15:22.624128,1.00268260,.0001158,0.0263,129.1684,49.2678,287.0861,0,U,47202,999,317,0,-.237E-5,0
FALCON EYE 2,2020-090A,2021-10-02T08:50:56.128416,14.84918686,.0001577,97.8540,348.8253,94.6789,265.4605,0,U,47226,999,4516,.26184E-4,.17E-5,0
GONETS-M 20,2020-091A,2021-10-02T11:09:53.001792,12.42887087,.0020135,82.5008,290.7251,336.0448,23.9696,0,U,47227,999,3769,.5135E-4,.17E-6,0
GONETS-M 21,2020-091B,2021-10-02T10:37:25.847328,12.42883002,.0014408,82.4935,290.5186,350.4629,9.6176,0,U,47228,999,3768,.28545E-3,.49E-6,0
GONETS-M 22,2020-091C,2021-10-02T11:52:34.016160,12.42877147,.0020899,82.4992,290.5818,329.0025,30.9820,0,U,47229,999,3768,.22235E-3,.41E-6,0
COSMOS 2548,2020-091D,2021-10-02T15:50:16.902240,12.42881290,.0014726,82.4951,290.4366,347.9375,12.1350,0,U,47230,999,3770,.22076E-3,.4E-6,0
GAOFEN 14,2020-092A,2021-10-02T11:58:44.937408,15.25575359,.0002861,97.4120,351.0674,20.8920,74.3600,0,U,47231,999,4578,.88311E-4,.2169E-4,0
GECAM-A,2020-094A,2021-10-02T10:17:14.073504,14.90784498,.0012729,28.9977,284.3688,108.0161,252.1823,0,U,47234,999,4425,.37832E-4,.519E-5,0
GECAM-B,2020-094B,2021-10-02T11:28:39.930816,14.90868198,.0013335,28.9991,283.7938,107.9562,252.2489,0,U,47235,999,4426,.44897E-4,.591E-5,0
SXM-7,2020-096A,2021-10-02T11:49:15.867264,1.00271228,.0001461,0.0243,181.3423,162.6952,89.4042,0,U,47240,999,310,0,-.25E-6,0
IPM 2 & BREEZE-M R/B,2020-097A,2021-10-01T10:12:20.755872,0.95298266,.0086376,0.7212,101.2035,224.2151,34.0519,0,U,47242,999,288,0,-.11E-5,0
STRIX-ALPHA,2020-098A,2021-10-02T09:27:40.780800,15.21991376,.0014124,97.3440,166.5579,5.5814,82.8381,0,U,47253,999,4423,.18289E-3,.4116E-4,0
CMS-01,2020-099A,2021-10-02T12:06:42.617952,1.00273167,.0006473,0.0608,99.8606,149.3164,27.0083,0,U,47256,999,295,0,-.169E-5,0
ONEWEB-0102,2020-100A,2021-10-02T03:22:34.473792,13.12444817,.0001967,87.8912,332.4836,107.3077,252.8266,0,U,47258,999,3924,.45432E-3,.176E-5,0
ONEWEB-0109,2020-100B,2021-10-02T10:56:57.723360,13.12444328,.0002267,87.8970,332.2594,104.8019,255.3361,0,U,47259,999,3911,-.22954E-3,-.7E-6,0
ONEWEB-0110,2020-100C,2021-10-02T09:37:40.269792,13.12440815,.0002074,87.8933,332.3622,105.9926,254.1431,0,U,47260,999,3927,.12041E-3,.56E-6,0
ONEWEB-0111,2020-100D,2021-10-02T04:54:05.432256,13.12446018,.0001832,87.8936,332.4287,105.4440,254.6891,0,U,47261,999,3908,-.3647E-3,-.118E-5,0
ONEWEB-0114,2020-100E,2021-10-02T05:39:49.771872,13.12441502,.0002186,87.8975,332.2667,100.2129,259.9246,0,U,47262,999,3904,.86135E-3,.323E-5,0
ONEWEB-0117,2020-100F,2021-10-02T05:30:40.605696,13.12444328,.0001995,87.8887,332.3766,103.1659,256.9693,0,U,47263,999,3905,.1206E-2,.447E-5,0
ONEWEB-0118,2020-100G,2021-10-02T04:20:33.873504,13.12439743,.0002096,87.8920,332.4151,97.3874,262.7493,0,U,47264,999,3924,-.1022E-2,-.355E-5,0
ONEWEB-0119,2020-100H,2021-10-02T10:32:33.766080,13.12446010,.0001921,87.8911,332.4316,103.2562,256.8781,0,U,47265,999,3925,.50089E-6,.13E-6,0
ONEWEB-0120,2020-100J,2021-10-02T05:45:55.036512,13.12442224,.0002223,87.8984,332.3766,102.5595,257.5782,0,U,47266,999,3925,.61911E-3,.235E-5,0
ONEWEB-0121,2020-100K,2021-10-02T05:24:34.364736,13.12444160,.0001756,87.8991,332.4344,106.9365,253.1956,0,U,47267,999,3916,.11969E-2,.443E-5,0
ONEWEB-0122,2020-100L,2021-10-02T03:25:39.629856,13.12441770,.0001735,87.8902,332.3878,88.2257,271.9070,0,U,47268,999,3906,.95338E-3,.356E-5,0
ONEWEB-0123,2020-100M,2021-10-02T05:06:17.979840,13.12444428,.000199,87.8926,332.4421,98.6201,261.5153,0,U,47269,999,3921,.25869E-3,.106E-5,0
ONEWEB-0124,2020-100N,2021-10-02T04:44:54.458592,13.12441501,.0001844,87.8894,332.3873,101.5219,258.6117,0,U,47270,999,3909,-.90865E-3,-.314E-5,0
ONEWEB-0125,2020-100P,2021-10-02T04:14:26.405664,13.12412465,.0001897,87.8966,332.4489,88.7470,271.3876,0,U,47271,999,3915,.12719E-1,.4589E-4,0
ONEWEB-0126,2020-100Q,2021-10-02T04:51:00.478368,13.12442780,.0002161,87.8926,332.4906,105.1905,254.9462,0,U,47272,999,3922,-.88522E-3,-.306E-5,0
ONEWEB-0127,2020-100R,2021-10-02T05:48:57.847680,13.12442429,.00022,87.8903,332.3862,101.8296,258.3080,0,U,47273,999,3925,.33113E-3,.132E-5,0
ONEWEB-0128,2020-100S,2021-10-02T11:45:44.400672,13.12440512,.0001938,87.8923,332.3435,107.5782,252.5559,0,U,47274,999,3930,-.93453E-3,-.323E-5,0
ONEWEB-0129,2020-100T,2021-10-02T04:02:14.225280,13.12440549,.0004119,87.8935,332.3413,100.9898,259.1694,0,U,47275,999,3919,.24942E-3,.102E-5,0
ONEWEB-0130,2020-100U,2021-10-02T10:08:09.602304,13.12443010,.0002135,87.8958,332.3648,113.3904,246.7449,0,U,47276,999,3919,-.15865E-2,-.558E-5,0
ONEWEB-0131,2020-100V,2021-10-02T04:32:43.299456,13.12439817,.0001765,87.8957,332.3585,95.9314,264.2016,0,U,47277,999,3920,-.10673E-2,-.371E-5,0
ONEWEB-0132,2020-100W,2021-10-02T05:21:31.337568,13.12445836,.000205,87.8919,332.4756,94.7146,265.4217,0,U,47278,999,3910,.10757E-2,.4E-5,0
ONEWEB-0133,2020-100X,2021-10-02T05:42:53.110080,13.12443193,.0002109,87.8943,332.3574,104.7165,255.4197,0,U,47279,999,3926,.88941E-3,.333E-5,0
ONEWEB-0134,2020-100Y,2021-10-02T10:26:27.537216,13.12445508,.0001624,87.8911,332.3576,102.3291,257.8020,0,U,47280,999,3926,-.41629E-3,-.137E-5,0
ONEWEB-0135,2020-100Z,2021-10-02T04:11:22.865280,13.12444423,.0002175,87.8915,332.3956,105.3795,254.7574,0,U,47281,999,3925,-.24871E-3,-.77E-6,0
ONEWEB-0136,2020-100AA,2021-10-02T04:41:54.172032,13.12439922,.0003052,87.8939,332.3484,122.0460,238.0966,0,U,47282,999,3918,.21806E-2,.797E-5,0
ONEWEB-0137,2020-100AB,2021-10-02T11:06:07.407072,13.12444591,.0002252,87.8899,332.4138,94.1309,266.0077,0,U,47283,999,3912,.12427E-2,.46E-5,0
ONEWEB-0138,2020-100AC,2021-10-02T05:00:11.033856,13.12442488,.0002143,87.8904,332.4516,104.6184,255.5182,0,U,47284,999,3917,-.48908E-4,-.5E-7,0
ONEWEB-0139,2020-100AD,2021-10-02T11:36:37.035072,13.12442019,.0001903,87.8956,332.4158,107.5210,252.6126,0,U,47285,999,3928,-.47827E-3,-.159E-5,0
ONEWEB-0140,2020-100AE,2021-10-02T04:47:59.129952,13.12443128,.0002098,87.8933,332.4402,110.5618,249.5736,0,U,47286,999,3921,-.8238E-3,-.284E-5,0
ONEWEB-0141,2020-100AF,2021-10-02T10:05:08.982240,13.12442561,.0002091,87.8907,332.3992,106.1819,253.9540,0,U,47287,999,3922,-.44676E-3,-.148E-5,0
ONEWEB-0142,2020-100AG,2021-10-02T10:38:41.323776,13.12443598,.0002106,87.8934,332.4683,91.6153,268.5217,0,U,47288,999,3922,.26958E-3,.11E-5,0
ONEWEB-0143,2020-100AH,2021-10-02T04:05:17.547936,13.12443110,.0001994,87.8955,332.3911,101.9327,258.2025,0,U,47289,999,3916,.47725E-4,.3E-6,0
ONEWEB-0144,2020-100AJ,2021-10-02T10:47:49.718400,13.12441576,.0001805,87.8975,332.2522,104.8979,255.2350,0,U,47290,999,3912,.83134E-3,.312E-5,0
ONEWEB-0145,2020-100AK,2021-10-02T11:48:48.276288,13.12442795,.0002107,87.8931,332.3613,105.5983,254.5378,0,U,47291,999,3932,-.9561E-3,-.331E-5,0
ONEWEB-0146,2020-100AL,2021-10-02T11:42:41.586048,13.12440676,.0002046,87.8917,332.3952,106.0654,254.0700,0,U,47292,999,3923,-.79866E-3,-.275E-5,0
ONEWEB-0147,2020-100AM,2021-10-02T11:03:05.886720,13.12444997,.0002745,87.8935,332.3890,117.9894,242.1512,0,U,47293,999,3912,.12917E-2,.477E-5,0
YUANGUANG,2020-102A,2021-10-02T12:55:42.377952,15.19504819,.0006103,97.4344,11.3537,275.0871,96.9613,0,U,47296,999,4317,.12756E-3,.2641E-4,0
HAISI 1,2020-102B,2021-10-02T12:32:36.155616,15.19805514,.0004357,97.4323,11.4716,257.1676,166.7809,0,U,47297,999,4316,.46111E-4,.919E-5,0
XJY-7,2020-102C,2021-10-02T12:20:27.189312,15.23535064,.0001647,97.3928,11.6834,60.5370,37.3929,0,U,47298,999,4328,.168E-3,.3943E-4,0
